{"type": "FeatureCollection", "features": [ {"type": "Feature", "properties": {"norad_id": 66938, "name": "STARLINK-36155", "group": "last-30-days", "lat": -6.56531913794858, "lon": -140.71122690482045, "alt_km": 303.40768106803625, "timestamp": "2025-12-15T22:44:27.662938+00:00", "meta": {"OBJECT_NAME": "STARLINK-36155", "OBJECT_ID": "2025-286P", "EPOCH": "2025-12-15T06:00:04.999968", "MEAN_MOTION": 15.92236741, "ECCENTRICITY": 8.983e-05, "INCLINATION": 53.1567, "RA_OF_ASC_NODE": 37.8886, "ARG_OF_PERICENTER": 81.4556, "MEAN_ANOMALY": 68.7708, "EPHEMERIS_TYPE": 0, "CLASSIFICATION_TYPE": "U", "NORAD_CAT_ID": 66938, "ELEMENT_SET_NO": 999, "REV_AT_EPOCH": 239, "BSTAR": -0.0042832054, "MEAN_MOTION_DOT": -0.01468432, "MEAN_MOTION_DDOT": 0.0006169068}, "tle": {"line1": "1 66938U 25286P   25349.25005787 -.01468432  61691-3 -42832-2 0  9999", "line2": "2 66938  53.1567  37.8886 0000898  81.4556  68.7708 15.92236741  2395"}}, "geometry": {"type": "Point", "coordinates": [-140.71122690482045, -6.56531913794858]}}, {"type": "Feature", "properties": {"norad_id": 66939, "name": "STARLINK-36154", "group": "last-30-days", "lat": -9.86431274317835, "lon": -138.178714407707, "alt_km": 303.57181069045237, "timestamp": "2025-12-15T22:44:27.662948+00:00", "meta": {"OBJECT_NAME": "STARLINK-36154", "OBJECT_ID": "2025-286Q", "EPOCH": "2025-12-15T06:00:04.999968", "MEAN_MOTION": 15.92350886, "ECCENTRICITY": 8.981e-05, "INCLINATION": 53.1567, "RA_OF_ASC_NODE": 37.8805, "ARG_OF_PERICENTER": 80.172, "MEAN_ANOMALY": 73.9405, "EPHEMERIS_TYPE": 0, "CLASSIFICATION_TYPE": "U", "NORAD_CAT_ID": 66939, "ELEMENT_SET_NO": 999, "REV_AT_EPOCH": 239, "BSTAR": -0.0043000317, "MEAN_MOTION_DOT": -0.01482804, "MEAN_MOTION_DDOT": 0.00062868914}, "tle": {"line1": "1 66939U 25286Q   25349.25005787 -.01482804  62869-3 -43000-2 0  9995", "line2": "2 66939  53.1567  37.8805 0000898  80.1720  73.9405 15.92350886  2395"}}, "geometry": {"type": "Point", "coordinates": [-138.178714407707, -9.86431274317835]}}, {"type": "Feature", "properties": {"norad_id": 66940, "name": "STARLINK-36121", "group": "last-30-days", "lat": -11.321530550956135, "lon": -137.04036746983655, "alt_km": 303.55217726868614, "timestamp": "2025-12-15T22:44:27.662958+00:00", "meta": {"OBJECT_NAME": "STARLINK-36121", "OBJECT_ID": "2025-286R", "EPOCH": "2025-12-15T06:00:04.999968", "MEAN_MOTION": 15.92408649, "ECCENTRICITY": 8.671e-05, "INCLINATION": 53.1565, "RA_OF_ASC_NODE": 37.8768, "ARG_OF_PERICENTER": 86.491, "MEAN_ANOMALY": 69.3348, "EPHEMERIS_TYPE": 0, "CLASSIFICATION_TYPE": "U", "NORAD_CAT_ID": 66940, "ELEMENT_SET_NO": 999, "REV_AT_EPOCH": 239, "BSTAR": -0.0043195719, "MEAN_MOTION_DOT": -0.01493887, "MEAN_MOTION_DDOT": 0.00063766942}, "tle": {"line1": "1 66940U 25286R   25349.25005787 -.01493887  63767-3 -43196-2 0  9994", "line2": "2 66940  53.1565  37.8768 0000867  86.4910  69.3348 15.92408649  2395"}}, "geometry": {"type": "Point", "coordinates": [-137.04036746983655, -11.321530550956135]}}, {"type": "Feature", "properties": {"norad_id": 66941, "name": "STARLINK-36088", "group": "last-30-days", "lat": -8.328748075009061, "lon": -139.36457249464706, "alt_km": 303.5225426508641, "timestamp": "2025-12-15T22:44:27.662971+00:00", "meta": {"OBJECT_NAME": "STARLINK-36088", "OBJECT_ID": "2025-286S", "EPOCH": "2025-12-15T06:00:04.999968", "MEAN_MOTION": 15.92299513, "ECCENTRICITY": 9.416e-05, "INCLINATION": 53.1566, "RA_OF_ASC_NODE": 37.884, "ARG_OF_PERICENTER": 80.775, "MEAN_ANOMALY": 71.5303, "EPHEMERIS_TYPE": 0, "CLASSIFICATION_TYPE": "U", "NORAD_CAT_ID": 66941, "ELEMENT_SET_NO": 999, "REV_AT_EPOCH": 239, "BSTAR": -0.0043080395, "MEAN_MOTION_DOT": -0.01481617, "MEAN_MOTION_DDOT": 0.00062745512}, "tle": {"line1": "1 66941U 25286S   25349.25005787 -.01481617  62746-3 -43080-2 0  9991", "line2": "2 66941  53.1566  37.8840 0000941  80.7750  71.5303 15.92299513  2394"}}, "geometry": {"type": "Point", "coordinates": [-139.36457249464706, -8.328748075009061]}}, {"type": "Feature", "properties": {"norad_id": 66942, "name": "STARLINK-36100", "group": "last-30-days", "lat": -12.849765146671606, "lon": -135.83001593891476, "alt_km": 303.49392840352357, "timestamp": "2025-12-15T22:44:27.662984+00:00", "meta": {"OBJECT_NAME": "STARLINK-36100", "OBJECT_ID": "2025-286T", "EPOCH": "2025-12-15T06:00:04.999968", "MEAN_MOTION": 15.92461922, "ECCENTRICITY": 9.137e-05, "INCLINATION": 53.1565, "RA_OF_ASC_NODE": 37.8731, "ARG_OF_PERICENTER": 95.2768, "MEAN_ANOMALY": 62.3512, "EPHEMERIS_TYPE": 0, "CLASSIFICATION_TYPE": "U", "NORAD_CAT_ID": 66942, "ELEMENT_SET_NO": 999, "REV_AT_EPOCH": 232, "BSTAR": -0.0043096547, "MEAN_MOTION_DOT": -0.014946, "MEAN_MOTION_DDOT": 0.00063855869}, "tle": {"line1": "1 66942U 25286T   25349.25005787 -.01494600  63856-3 -43097-2 0  9999", "line2": "2 66942  53.1565  37.8731 0000913  95.2768  62.3512 15.92461922  2320"}}, "geometry": {"type": "Point", "coordinates": [-135.83001593891476, -12.849765146671606]}}, {"type": "Feature", "properties": {"norad_id": 66943, "name": "STARLINK-36109", "group": "last-30-days", "lat": -14.634211856776812, "lon": -134.3920797586787, "alt_km": 303.5999344885313, "timestamp": "2025-12-15T22:44:27.663006+00:00", "meta": {"OBJECT_NAME": "STARLINK-36109", "OBJECT_ID": "2025-286U", "EPOCH": "2025-12-15T06:00:04.999968", "MEAN_MOTION": 15.92524579, "ECCENTRICITY": 8.696e-05, "INCLINATION": 53.1565, "RA_OF_ASC_NODE": 37.8686, "ARG_OF_PERICENTER": 92.0171, "MEAN_ANOMALY": 67.7451, "EPHEMERIS_TYPE": 0, "CLASSIFICATION_TYPE": "U", "NORAD_CAT_ID": 66943, "ELEMENT_SET_NO": 999, "REV_AT_EPOCH": 232, "BSTAR": -0.0043326132, "MEAN_MOTION_DOT": -0.01507313, "MEAN_MOTION_DDOT": 0.00064892846}, "tle": {"line1": "1 66943U 25286U   25349.25005787 -.01507313  64893-3 -43326-2 0  9993", "line2": "2 66943  53.1565  37.8686 0000869  92.0171  67.7451 15.92524579  2322"}}, "geometry": {"type": "Point", "coordinates": [-134.3920797586787, -14.634211856776812]}}, {"type": "Feature", "properties": {"norad_id": 66944, "name": "STARLINK-36112", "group": "last-30-days", "lat": -16.06276531290134, "lon": -133.21890392156064, "alt_km": 303.71658320888855, "timestamp": "2025-12-15T22:44:27.663018+00:00", "meta": {"OBJECT_NAME": "STARLINK-36112", "OBJECT_ID": "2025-286V", "EPOCH": "2025-12-15T06:00:04.999968", "MEAN_MOTION": 15.92576853, "ECCENTRICITY": 9.508e-05, "INCLINATION": 53.1564, "RA_OF_ASC_NODE": 37.8648, "ARG_OF_PERICENTER": 86.0115, "MEAN_ANOMALY": 75.4543, "EPHEMERIS_TYPE": 0, "CLASSIFICATION_TYPE": "U", "NORAD_CAT_ID": 66944, "ELEMENT_SET_NO": 999, "REV_AT_EPOCH": 239, "BSTAR": -0.0043379899, "MEAN_MOTION_DOT": -0.01513242, "MEAN_MOTION_DDOT": 0.00065394227}, "tle": {"line1": "1 66944U 25286V   25349.25005787 -.01513242  65394-3 -43380-2 0  9999", "line2": "2 66944  53.1564  37.8648 0000950  86.0115  75.4543 15.92576853  2399"}}, "geometry": {"type": "Point", "coordinates": [-133.21890392156064, -16.06276531290134]}}, {"type": "Feature", "properties": {"norad_id": 66945, "name": "STARLINK-36110", "group": "last-30-days", "lat": -17.793093079210934, "lon": -131.76722189462654, "alt_km": 303.73991655736245, "timestamp": "2025-12-15T22:44:27.663028+00:00", "meta": {"OBJECT_NAME": "STARLINK-36110", "OBJECT_ID": "2025-286W", "EPOCH": "2025-12-15T06:00:04.999968", "MEAN_MOTION": 15.92638299, "ECCENTRICITY": 9.179e-05, "INCLINATION": 53.1562, "RA_OF_ASC_NODE": 37.8604, "ARG_OF_PERICENTER": 86.8287, "MEAN_ANOMALY": 76.7188, "EPHEMERIS_TYPE": 0, "CLASSIFICATION_TYPE": "U", "NORAD_CAT_ID": 66945, "ELEMENT_SET_NO": 999, "REV_AT_EPOCH": 239, "BSTAR": -0.0043469008, "MEAN_MOTION_DOT": -0.0152112, "MEAN_MOTION_DDOT": 0.00066058484}, "tle": {"line1": "1 66945U 25286W   25349.25005787 -.01521120  66058-3 -43469-2 0  9990", "line2": "2 66945  53.1562  37.8604 0000917  86.8287  76.7188 15.92638299  2393"}}, "geometry": {"type": "Point", "coordinates": [-131.76722189462654, -17.793093079210934]}}, {"type": "Feature", "properties": {"norad_id": 66946, "name": "STARLINK-36115", "group": "last-30-days", "lat": -19.29981306375608, "lon": -130.47239584939825, "alt_km": 303.77987920915257, "timestamp": "2025-12-15T22:44:27.663038+00:00", "meta": {"OBJECT_NAME": "STARLINK-36115", "OBJECT_ID": "2025-286X", "EPOCH": "2025-12-15T06:00:04.999968", "MEAN_MOTION": 15.92693067, "ECCENTRICITY": 9.278e-05, "INCLINATION": 53.1562, "RA_OF_ASC_NODE": 37.8566, "ARG_OF_PERICENTER": 85.1184, "MEAN_ANOMALY": 80.247, "EPHEMERIS_TYPE": 0, "CLASSIFICATION_TYPE": "U", "NORAD_CAT_ID": 66946, "ELEMENT_SET_NO": 999, "REV_AT_EPOCH": 239, "BSTAR": -0.0043489398, "MEAN_MOTION_DOT": -0.01526134, "MEAN_MOTION_DDOT": 0.00066493329}, "tle": {"line1": "1 66946U 25286X   25349.25005787 -.01526134  66493-3 -43489-2 0  9996", "line2": "2 66946  53.1562  37.8566 0000927  85.1184  80.2470 15.92693067  2398"}}, "geometry": {"type": "Point", "coordinates": [-130.47239584939825, -19.29981306375608]}}, {"type": "Feature", "properties": {"norad_id": 66947, "name": "STARLINK-36089", "group": "last-30-days", "lat": -22.476006500466763, "lon": -127.63172312346518, "alt_km": 303.8166903737865, "timestamp": "2025-12-15T22:44:27.663048+00:00", "meta": {"OBJECT_NAME": "STARLINK-36089", "OBJECT_ID": "2025-286Y", "EPOCH": "2025-12-15T06:00:04.999968", "MEAN_MOTION": 15.9281159, "ECCENTRICITY": 0.00010094, "INCLINATION": 53.1562, "RA_OF_ASC_NODE": 37.8486, "ARG_OF_PERICENTER": 78.5227, "MEAN_ANOMALY": 90.7215, "EPHEMERIS_TYPE": 0, "CLASSIFICATION_TYPE": "U", "NORAD_CAT_ID": 66947, "ELEMENT_SET_NO": 999, "REV_AT_EPOCH": 239, "BSTAR": -0.0043752865, "MEAN_MOTION_DOT": -0.01544701, "MEAN_MOTION_DDOT": 0.00068061673}, "tle": {"line1": "1 66947U 25286Y   25349.25005787 -.01544701  68062-3 -43753-2 0  9995", "line2": "2 66947  53.1562  37.8486 0001009  78.5227  90.7215 15.92811590  2392"}}, "geometry": {"type": "Point", "coordinates": [-127.63172312346518, -22.476006500466763]}}]}